{"type": "FeatureCollection", "features": [{"type": "Feature", "properties": {"norad_id": 28890, "name": "BEIJING 1", "group": "dmc", "lat": -8.736770337653851, "lon": -69.57264881099572, "alt_km": 678.1853896997054, "timestamp": "2025-12-10T04:57:29.272672+00:00", "meta": {"OBJECT_NAME": "BEIJING 1", "OBJECT_ID": "2005-043A", "EPOCH": "2025-12-09T19:53:39.151968", "MEAN_MOTION": 14.63362885, "ECCENTRICITY": 0.001514, "INCLINATION": 98.2657, "RA_OF_ASC_NODE": 111.329, "ARG_OF_PERICENTER": 149.9215, "MEAN_ANOMALY": 210.2859, "EPHEMERIS_TYPE": 0, "CLASSIFICATION_TYPE": "U", "NORAD_CAT_ID": 28890, "ELEMENT_SET_NO": 999, "REV_AT_EPOCH": 7295, "BSTAR": 0.00019196, "MEAN_MOTION_DOT": 9.44e-06, "MEAN_MOTION_DDOT": 0}, "tle": {"line1": "1 28890U 05043A   25343.82892537  .00000944  00000+0  19196-3 0  9995", "line2": "2 28890  98.2657 111.3290 0015140 149.9215 210.2859 14.63362885 72951"}}, "geometry": {"type": "Point", "coordinates": [-69.57264881099572, -8.736770337653851]}}, {"type": "Feature", "properties": {"norad_id": 33320, "name": "HUANJING 1A (HJ-1A)", "group": "dmc", "lat": 33.28158277040402, "lon": -32.45380760178389, "alt_km": 602.5809501388021, "timestamp": "2025-12-10T04:57:29.272696+00:00", "meta": {"OBJECT_NAME": "HUANJING 1A (HJ-1A)", "OBJECT_ID": "2008-041A", "EPOCH": "2025-12-09T20:42:46.854720", "MEAN_MOTION": 14.8338019, "ECCENTRICITY": 0.0020338, "INCLINATION": 97.6543, "RA_OF_ASC_NODE": 332.2815, "ARG_OF_PERICENTER": 43.5549, "MEAN_ANOMALY": 316.7267, "EPHEMERIS_TYPE": 0, "CLASSIFICATION_TYPE": "U", "NORAD_CAT_ID": 33320, "ELEMENT_SET_NO": 999, "REV_AT_EPOCH": 93033, "BSTAR": 0.00036084, "MEAN_MOTION_DOT": 2.919e-05, "MEAN_MOTION_DDOT": 0}, "tle": {"line1": "1 33320U 08041A   25343.86304230  .00002919  00000+0  36084-3 0  9991", "line2": "2 33320  97.6543 332.2815 0020338  43.5549 316.7267 14.83380190930334"}}, "geometry": {"type": "Point", "coordinates": [-32.45380760178389, 33.28158277040402]}}, {"type": "Feature", "properties": {"norad_id": 33321, "name": "HUANJING 1B (HJ-1B)", "group": "dmc", "lat": -77.53394097932892, "lon": 118.92869230476933, "alt_km": 654.5459349174889, "timestamp": "2025-12-10T04:57:29.272711+00:00", "meta": {"OBJECT_NAME": "HUANJING 1B (HJ-1B)", "OBJECT_ID": "2008-041B", "EPOCH": "2025-12-09T21:18:44.877888", "MEAN_MOTION": 14.82810129, "ECCENTRICITY": 0.0038267, "INCLINATION": 97.64, "RA_OF_ASC_NODE": 336.0096, "ARG_OF_PERICENTER": 84.6752, "MEAN_ANOMALY": 275.8827, "EPHEMERIS_TYPE": 0, "CLASSIFICATION_TYPE": "U", "NORAD_CAT_ID": 33321, "ELEMENT_SET_NO": 999, "REV_AT_EPOCH": 93035, "BSTAR": 0.00025726, "MEAN_MOTION_DOT": 2.056e-05, "MEAN_MOTION_DDOT": 0}, "tle": {"line1": "1 33321U 08041B   25343.88801942  .00002056  00000+0  25726-3 0  9999", "line2": "2 33321  97.6400 336.0096 0038267  84.6752 275.8827 14.82810129930350"}}, "geometry": {"type": "Point", "coordinates": [118.92869230476933, -77.53394097932892]}}, {"type": "Feature", "properties": {"norad_id": 33446, "name": "YAOGAN-4", "group": "dmc", "lat": 6.960196232360818, "lon": 95.30417883195477, "alt_km": 632.0238032067045, "timestamp": "2025-12-10T04:57:29.272723+00:00", "meta": {"OBJECT_NAME": "YAOGAN-4", "OBJECT_ID": "2008-061A", "EPOCH": "2025-12-09T18:27:44.192736", "MEAN_MOTION": 14.82669066, "ECCENTRICITY": 0.0013834, "INCLINATION": 97.918, "RA_OF_ASC_NODE": 273.8977, "ARG_OF_PERICENTER": 333.4194, "MEAN_ANOMALY": 26.6309, "EPHEMERIS_TYPE": 0, "CLASSIFICATION_TYPE": "U", "NORAD_CAT_ID": 33446, "ELEMENT_SET_NO": 999, "REV_AT_EPOCH": 91759, "BSTAR": 0.000361, "MEAN_MOTION_DOT": 2.862e-05, "MEAN_MOTION_DDOT": 0}, "tle": {"line1": "1 33446U 08061A   25343.76926149  .00002862  00000+0  36100-3 0  9996", "line2": "2 33446  97.9180 273.8977 0013834 333.4194  26.6309 14.82669066917590"}}, "geometry": {"type": "Point", "coordinates": [95.30417883195477, 6.960196232360818]}}, {"type": "Feature", "properties": {"norad_id": 35681, "name": "DEIMOS-1", "group": "dmc", "lat": 12.869012598992368, "lon": 143.15261222348502, "alt_km": 645.8593948626467, "timestamp": "2025-12-10T04:57:29.272734+00:00", "meta": {"OBJECT_NAME": "DEIMOS-1", "OBJECT_ID": "2009-041A", "EPOCH": "2025-12-09T20:45:30.841056", "MEAN_MOTION": 14.74944806, "ECCENTRICITY": 0.0002725, "INCLINATION": 97.7146, "RA_OF_ASC_NODE": 144.6017, "ARG_OF_PERICENTER": 83.9386, "MEAN_ANOMALY": 276.2134, "EPHEMERIS_TYPE": 0, "CLASSIFICATION_TYPE": "U", "NORAD_CAT_ID": 35681, "ELEMENT_SET_NO": 999, "REV_AT_EPOCH": 87897, "BSTAR": 0.0001367, "MEAN_MOTION_DOT": 8.71e-06, "MEAN_MOTION_DDOT": 0}, "tle": {"line1": "1 35681U 09041A   25343.86494029  .00000871  00000+0  13670-3 0  9991", "line2": "2 35681  97.7146 144.6017 0002725  83.9386 276.2134 14.74944806878976"}}, "geometry": {"type": "Point", "coordinates": [143.15261222348502, 12.869012598992368]}}, {"type": "Feature", "properties": {"norad_id": 35683, "name": "UK-DMC 2", "group": "dmc", "lat": 21.746778231964345, "lon": 116.02341460491346, "alt_km": 642.7475029091747, "timestamp": "2025-12-10T04:57:29.272745+00:00", "meta": {"OBJECT_NAME": "UK-DMC 2", "OBJECT_ID": "2009-041C", "EPOCH": "2025-12-09T20:43:18.261984", "MEAN_MOTION": 14.75610996, "ECCENTRICITY": 0.0001395, "INCLINATION": 97.8564, "RA_OF_ASC_NODE": 118.8474, "ARG_OF_PERICENTER": 96.7575, "MEAN_ANOMALY": 263.3793, "EPHEMERIS_TYPE": 0, "CLASSIFICATION_TYPE": "U", "NORAD_CAT_ID": 35683, "ELEMENT_SET_NO": 999, "REV_AT_EPOCH": 87864, "BSTAR": 0.00020814, "MEAN_MOTION_DOT": 1.371e-05, "MEAN_MOTION_DDOT": 0}, "tle": {"line1": "1 35683U 09041C   25343.86340581  .00001371  00000+0  20814-3 0  9990", "line2": "2 35683  97.8564 118.8474 0001395  96.7575 263.3793 14.75610996878640"}}, "geometry": {"type": "Point", "coordinates": [116.02341460491346, 21.746778231964345]}}, {"type": "Feature", "properties": {"norad_id": 40715, "name": "DMC3-FM1", "group": "dmc", "lat": -18.246556780018228, "lon": -145.96282404752995, "alt_km": 613.9531539074706, "timestamp": "2025-12-10T04:57:29.272756+00:00", "meta": {"OBJECT_NAME": "DMC3-FM1", "OBJECT_ID": "2015-032A", "EPOCH": "2025-12-09T20:57:26.514720", "MEAN_MOTION": 14.85434988, "ECCENTRICITY": 0.0004837, "INCLINATION": 97.6689, "RA_OF_ASC_NODE": 211.17, "ARG_OF_PERICENTER": 333.1259, "MEAN_ANOMALY": 26.9706, "EPHEMERIS_TYPE": 0, "CLASSIFICATION_TYPE": "U", "NORAD_CAT_ID": 40715, "ELEMENT_SET_NO": 999, "REV_AT_EPOCH": 56180, "BSTAR": 0.00022052, "MEAN_MOTION_DOT": 1.849e-05, "MEAN_MOTION_DDOT": 0}, "tle": {"line1": "1 40715U 15032A   25343.87322355  .00001849  00000+0  22052-3 0  9995", "line2": "2 40715  97.6689 211.1700 0004837 333.1259  26.9706 14.85434988561808"}}, "geometry": {"type": "Point", "coordinates": [-145.96282404752995, -18.246556780018228]}}, {"type": "Feature", "properties": {"norad_id": 40716, "name": "DMC3-FM2", "group": "dmc", "lat": -41.03586794627989, "lon": 26.192974809740434, "alt_km": 620.4556984576466, "timestamp": "2025-12-10T04:57:29.272766+00:00", "meta": {"OBJECT_NAME": "DMC3-FM2", "OBJECT_ID": "2015-032B", "EPOCH": "2025-12-09T21:29:50.450784", "MEAN_MOTION": 14.85433757, "ECCENTRICITY": 0.0005561, "INCLINATION": 97.6747, "RA_OF_ASC_NODE": 212.6336, "ARG_OF_PERICENTER": 337.384, "MEAN_ANOMALY": 22.713, "EPHEMERIS_TYPE": 0, "CLASSIFICATION_TYPE": "U", "NORAD_CAT_ID": 40716, "ELEMENT_SET_NO": 999, "REV_AT_EPOCH": 56180, "BSTAR": 0.00011614, "MEAN_MOTION_DOT": 9.49e-06, "MEAN_MOTION_DDOT": 0}, "tle": {"line1": "1 40716U 15032B   25343.89572281  .00000949  00000+0  11614-3 0  9995", "line2": "2 40716  97.6747 212.6336 0005561 337.3840  22.7130 14.85433757561800"}}, "geometry": {"type": "Point", "coordinates": [26.192974809740434, -41.03586794627989]}}, {"type": "Feature", "properties": {"norad_id": 40717, "name": "DMC3-FM3", "group": "dmc", "lat": 72.24681661321492, "lon": 59.49204693164273, "alt_km": 607.4587798586545, "timestamp": "2025-12-10T04:57:29.272777+00:00", "meta": {"OBJECT_NAME": "DMC3-FM3", "OBJECT_ID": "2015-032C", "EPOCH": "2025-12-09T20:23:57.026976", "MEAN_MOTION": 14.85422032, "ECCENTRICITY": 0.000495, "INCLINATION": 97.68, "RA_OF_ASC_NODE": 214.2203, "ARG_OF_PERICENTER": 338.9467, "MEAN_ANOMALY": 21.1544, "EPHEMERIS_TYPE": 0, "CLASSIFICATION_TYPE": "U", "NORAD_CAT_ID": 40717, "ELEMENT_SET_NO": 999, "REV_AT_EPOCH": 56180, "BSTAR": 8.0485e-05, "MEAN_MOTION_DOT": 6.42e-06, "MEAN_MOTION_DDOT": 0}, "tle": {"line1": "1 40717U 15032C   25343.84996559  .00000642  00000+0  80485-4 0  9992", "line2": "2 40717  97.6800 214.2203 0004950 338.9467  21.1544 14.85422032561801"}}, "geometry": {"type": "Point", "coordinates": [59.49204693164273, 72.24681661321492]}}]}